{"type": "FeatureCollection", "features": [ {"type": "Feature", "properties": {"norad_id": 54234, "name": "NOAA 21 (JPSS-2)", "group": "weather", "lat": -12.388448121678003, "lon": 109.50395074241209, "alt_km": 832.6576609313406, "timestamp": "2025-12-21T05:44:51.219132+00:00", "meta": {"OBJECT_NAME": "NOAA 21 (JPSS-2)", "OBJECT_ID": "2022-150A", "EPOCH": "2025-12-20T22:04:38.462304", "MEAN_MOTION": 14.19526224, "ECCENTRICITY": 0.00018589, "INCLINATION": 98.7473, "RA_OF_ASC_NODE": 291.1264, "ARG_OF_PERICENTER": 21.6312, "MEAN_ANOMALY": 338.4943, "EPHEMERIS_TYPE": 0, "CLASSIFICATION_TYPE": "U", "NORAD_CAT_ID": 54234, "ELEMENT_SET_NO": 999, "REV_AT_EPOCH": 16125, "BSTAR": 4.3119483e-05, "MEAN_MOTION_DOT": 4.7e-07, "MEAN_MOTION_DDOT": 0}, "tle": {"line1": "1 54234U 22150A   25354.91988961  .00000047  00000+0  43119-4 0  9990", "line2": "2 54234  98.7473 291.1264 0001858  21.6312 338.4943 14.19526224161255"}}, "geometry": {"type": "Point", "coordinates": [109.50395074241209, -12.388448121678003]}}, {"type": "Feature", "properties": {"norad_id": 54743, "name": "METEOSAT-12 (MTG-I1)", "group": "weather", "lat": 0.3397644395358893, "lon": 175.94159417123444, "alt_km": 35786.23146009191, "timestamp": "2025-12-21T05:44:51.219144+00:00", "meta": {"OBJECT_NAME": "METEOSAT-12 (MTG-I1)", "OBJECT_ID": "2022-170C", "EPOCH": "2025-12-20T21:47:17.848608", "MEAN_MOTION": 1.00270623, "ECCENTRICITY": 0.00014861, "INCLINATION": 0.6952, "RA_OF_ASC_NODE": 24.9682, "ARG_OF_PERICENTER": 239.83, "MEAN_ANOMALY": 151.4522, "EPHEMERIS_TYPE": 0, "CLASSIFICATION_TYPE": "U", "NORAD_CAT_ID": 54743, "ELEMENT_SET_NO": 999, "REV_AT_EPOCH": 1119, "BSTAR": 0, "MEAN_MOTION_DOT": 1.5e-07, "MEAN_MOTION_DDOT": 0}, "tle": {"line1": "1 54743U 22170C   25354.90784547  .00000015  00000+0  00000+0 0  9992", "line2": "2 54743   0.6952  24.9682 0001486 239.8300 151.4522  1.00270623 11195"}}, "geometry": {"type": "Point", "coordinates": [175.94159417123444, 0.3397644395358893]}}, {"type": "Feature", "properties": {"norad_id": 55973, "name": "TIANMU-1 03", "group": "weather", "lat": -49.898123394396535, "lon": -30.883998176358915, "alt_km": 452.3265904101072, "timestamp": "2025-12-21T05:44:51.219156+00:00", "meta": {"OBJECT_NAME": "TIANMU-1 03", "OBJECT_ID": "2023-039A", "EPOCH": "2025-12-20T22:31:03.629280", "MEAN_MOTION": 15.41144788, "ECCENTRICITY": 0.00040201, "INCLINATION": 97.5106, "RA_OF_ASC_NODE": 157.8198, "ARG_OF_PERICENTER": 37.5538, "MEAN_ANOMALY": 322.5989, "EPHEMERIS_TYPE": 0, "CLASSIFICATION_TYPE": "U", "NORAD_CAT_ID": 55973, "ELEMENT_SET_NO": 999, "REV_AT_EPOCH": 15332, "BSTAR": 0.00026919934, "MEAN_MOTION_DOT": 0.00011071, "MEAN_MOTION_DDOT": 0}, "tle": {"line1": "1 55973U 23039A   25354.93823645  .00011071  00000+0  26920-3 0  9996", "line2": "2 55973  97.5106 157.8198 0004020  37.5538 322.5989 15.41144788153320"}}, "geometry": {"type": "Point", "coordinates": [-30.883998176358915, -49.898123394396535]}}, {"type": "Feature", "properties": {"norad_id": 55974, "name": "TIANMU-1 04", "group": "weather", "lat": -5.36456993467784, "lon": 158.02632457142545, "alt_km": 442.9283147025144, "timestamp": "2025-12-21T05:44:51.219188+00:00", "meta": {"OBJECT_NAME": "TIANMU-1 04", "OBJECT_ID": "2023-039B", "EPOCH": "2025-12-20T21:58:52.387104", "MEAN_MOTION": 15.41485063, "ECCENTRICITY": 0.00046272, "INCLINATION": 97.5037, "RA_OF_ASC_NODE": 156.9846, "ARG_OF_PERICENTER": 31.5676, "MEAN_ANOMALY": 328.5847, "EPHEMERIS_TYPE": 0, "CLASSIFICATION_TYPE": "U", "NORAD_CAT_ID": 55974, "ELEMENT_SET_NO": 999, "REV_AT_EPOCH": 15332, "BSTAR": 0.00025331547, "MEAN_MOTION_DOT": 0.00010531, "MEAN_MOTION_DDOT": 0}, "tle": {"line1": "1 55974U 23039B   25354.91588411  .00010531  00000+0  25332-3 0  9990", "line2": "2 55974  97.5037 156.9846 0004627  31.5676 328.5847 15.41485063153327"}}, "geometry": {"type": "Point", "coordinates": [158.02632457142545, -5.36456993467784]}}, {"type": "Feature", "properties": {"norad_id": 55975, "name": "TIANMU-1 05", "group": "weather", "lat": 14.702655884403345, "lon": 155.82654115814432, "alt_km": 441.7070778676025, "timestamp": "2025-12-21T05:44:51.219205+00:00", "meta": {"OBJECT_NAME": "TIANMU-1 05", "OBJECT_ID": "2023-039C", "EPOCH": "2025-12-20T21:53:30.286176", "MEAN_MOTION": 15.41101642, "ECCENTRICITY": 0.00040923, "INCLINATION": 97.5084, "RA_OF_ASC_NODE": 157.4735, "ARG_OF_PERICENTER": 56.1602, "MEAN_ANOMALY": 304.0034, "EPHEMERIS_TYPE": 0, "CLASSIFICATION_TYPE": "U", "NORAD_CAT_ID": 55975, "ELEMENT_SET_NO": 999, "REV_AT_EPOCH": 15330, "BSTAR": 0.00025626781, "MEAN_MOTION_DOT": 0.00010519, "MEAN_MOTION_DDOT": 0}, "tle": {"line1": "1 55975U 23039C   25354.91215609  .00010519  00000+0  25627-3 0  9990", "line2": "2 55975  97.5084 157.4735 0004092  56.1602 304.0034 15.41101642153304"}}, "geometry": {"type": "Point", "coordinates": [155.82654115814432, 14.702655884403345]}}, {"type": "Feature", "properties": {"norad_id": 55976, "name": "TIANMU-1 06", "group": "weather", "lat": -15.753483979069225, "lon": 160.41462447105462, "alt_km": 445.1891507016662, "timestamp": "2025-12-21T05:44:51.219216+00:00", "meta": {"OBJECT_NAME": "TIANMU-1 06", "OBJECT_ID": "2023-039D", "EPOCH": "2025-12-20T22:01:36.611040", "MEAN_MOTION": 15.41536982, "ECCENTRICITY": 0.0004386, "INCLINATION": 97.5094, "RA_OF_ASC_NODE": 157.9512, "ARG_OF_PERICENTER": 50.2399, "MEAN_ANOMALY": 309.9234, "EPHEMERIS_TYPE": 0, "CLASSIFICATION_TYPE": "U", "NORAD_CAT_ID": 55976, "ELEMENT_SET_NO": 999, "REV_AT_EPOCH": 15332, "BSTAR": 0.00025642946, "MEAN_MOTION_DOT": 0.0001068, "MEAN_MOTION_DDOT": 0}, "tle": {"line1": "1 55976U 23039D   25354.91778485  .00010680  00000+0  25643-3 0  9994", "line2": "2 55976  97.5094 157.9512 0004386  50.2399 309.9234 15.41536982153325"}}, "geometry": {"type": "Point", "coordinates": [160.41462447105462, -15.753483979069225]}}, {"type": "Feature", "properties": {"norad_id": 56232, "name": "FENGYUN 3G", "group": "weather", "lat": 21.374306029420826, "lon": -15.616300152874059, "alt_km": 396.99996324525637, "timestamp": "2025-12-21T05:44:51.219228+00:00", "meta": {"OBJECT_NAME": "FENGYUN 3G", "OBJECT_ID": "2023-055A", "EPOCH": "2025-12-20T22:55:32.952864", "MEAN_MOTION": 15.54098003, "ECCENTRICITY": 0.00092884, "INCLINATION": 49.9915, "RA_OF_ASC_NODE": 185.0447, "ARG_OF_PERICENTER": 185.5701, "MEAN_ANOMALY": 174.5164, "EPHEMERIS_TYPE": 0, "CLASSIFICATION_TYPE": "U", "NORAD_CAT_ID": 56232, "ELEMENT_SET_NO": 999, "REV_AT_EPOCH": 15230, "BSTAR": 0.00035603262, "MEAN_MOTION_DOT": 0.00023207, "MEAN_MOTION_DDOT": 0}, "tle": {"line1": "1 56232U 23055A   25354.95524251  .00023207  00000+0  35603-3 0  9998", "line2": "2 56232  49.9915 185.0447 0009288 185.5701 174.5164 15.54098003152304"}}, "geometry": {"type": "Point", "coordinates": [-15.616300152874059, 21.374306029420826]}}, {"type": "Feature", "properties": {"norad_id": 57166, "name": "METEOR-M2 3", "group": "weather", "lat": -55.52068763466641, "lon": -144.156253166122, "alt_km": 819.4999660133562, "timestamp": "2025-12-21T05:44:51.219242+00:00", "meta": {"OBJECT_NAME": "METEOR-M2 3", "OBJECT_ID": "2023-091A", "EPOCH": "2025-12-20T21:53:42.625824", "MEAN_MOTION": 14.24026963, "ECCENTRICITY": 0.00034529, "INCLINATION": 98.6366, "RA_OF_ASC_NODE": 48.3085, "ARG_OF_PERICENTER": 344.2508, "MEAN_ANOMALY": 15.8563, "EPHEMERIS_TYPE": 0, "CLASSIFICATION_TYPE": "U", "NORAD_CAT_ID": 57166, "ELEMENT_SET_NO": 999, "REV_AT_EPOCH": 12914, "BSTAR": 1.7362611e-05, "MEAN_MOTION_DOT": -4e-08, "MEAN_MOTION_DDOT": 0}, "tle": {"line1": "1 57166U 23091A   25354.91229891 -.00000004  00000+0  17363-4 0  9998", "line2": "2 57166  98.6366  48.3085 0003452 344.2508  15.8563 14.24026963129145"}}, "geometry": {"type": "Point", "coordinates": [-144.156253166122, -55.52068763466641]}}, {"type": "Feature", "properties": {"norad_id": 57399, "name": "TIANMU-1 07", "group": "weather", "lat": 3.3642321206729053, "lon": 44.47113879827778, "alt_km": 481.8794766644196, "timestamp": "2025-12-21T05:44:51.219253+00:00", "meta": {"OBJECT_NAME": "TIANMU-1 07", "OBJECT_ID": "2023-101A", "EPOCH": "2025-12-20T21:52:30.793728", "MEAN_MOTION": 15.28178109, "ECCENTRICITY": 0.00052781, "INCLINATION": 97.2865, "RA_OF_ASC_NODE": 44.5813, "ARG_OF_PERICENTER": 60.7256, "MEAN_ANOMALY": 299.4511, "EPHEMERIS_TYPE": 0, "CLASSIFICATION_TYPE": "U", "NORAD_CAT_ID": 57399, "ELEMENT_SET_NO": 999, "REV_AT_EPOCH": 13440, "BSTAR": 0.00018435477, "MEAN_MOTION_DOT": 4.991e-05, "MEAN_MOTION_DDOT": 0}, "tle": {"line1": "1 57399U 23101A   25354.91146752  .00004991  00000+0  18435-3 0  9990", "line2": "2 57399  97.2865  44.5813 0005278  60.7256 299.4511 15.28178109134400"}}, "geometry": {"type": "Point", "coordinates": [44.47113879827778, 3.3642321206729053]}}, {"type": "Feature", "properties": {"norad_id": 57400, "name": "TIANMU-1 08", "group": "weather", "lat": -4.930073864474776, "lon": -135.93374458373728, "alt_km": 487.860228221517, "timestamp": "2025-12-21T05:44:51.219263+00:00", "meta": {"OBJECT_NAME": "TIANMU-1 08", "OBJECT_ID": "2023-101B", "EPOCH": "2025-12-20T22:39:20.461248", "MEAN_MOTION": 15.28160913, "ECCENTRICITY": 0.00072102, "INCLINATION": 97.2853, "RA_OF_ASC_NODE": 44.4096, "ARG_OF_PERICENTER": 60.8992, "MEAN_ANOMALY": 299.2969, "EPHEMERIS_TYPE": 0, "CLASSIFICATION_TYPE": "U", "NORAD_CAT_ID": 57400, "ELEMENT_SET_NO": 999, "REV_AT_EPOCH": 13440, "BSTAR": 0.00018446362, "MEAN_MOTION_DOT": 4.993e-05, "MEAN_MOTION_DDOT": 0}, "tle": {"line1": "1 57400U 23101B   25354.94398682  .00004993  00000+0  18446-3 0  9991", "line2": "2 57400  97.2853  44.4096 0007210  60.8992 299.2969 15.28160913134407"}}, "geometry": {"type": "Point", "coordinates": [-135.93374458373728, -4.930073864474776]}}]}